NORAD_CAT_ID,OBJECT_NAME,OBJECT_TYPE,EPOCH,MEAN_MOTION,ECCENTRICITY,INCLINATION,RA_OF_ASC_NODE,ARG_OF_PERICENTER,MEAN_ANOMALY,BSTAR,MEAN_MOTION_DOT,MEAN_MOTION_DDOT,TLE_LINE0,TLE_LINE1,TLE_LINE2,SEMIMAJOR_AXIS,PERIOD,APOGEE,PERIGEE,DECAYED
51810.0,STARLINK-3613,PAYLOAD,2022-04-05 12:00:00,15.73246569,0.000125,53.2153,311.2712,81.4295,149.9055,-0.00040526,-0.00057223,0.0,0 STARLINK-3613,1 51810U 22017AU  22095.50001157 -.00057223  00000-0 -40526-3 0  9995,2 51810  53.2153 311.2712 0001250  81.4295 149.9055 15.73246569  7345,6727.762,91.53,350.468,348.786,0.0
51810.0,STARLINK-3613,PAYLOAD,2022-04-05 14:00:01,15.73239836,0.0001323,53.2155,310.8588,82.5955,261.0491,-0.00045387,-0.00063944,0.0,0 STARLINK-3613,1 51810U 22017AU  22095.58335648 -.00063944  00000-0 -45387-3 0  9995,2 51810  53.2155 310.8588 0001323  82.5955 261.0491 15.73239836  3704,6727.781999999997,91.531,350.537,348.75699999999995,0.0
51810.0,STARLINK-3613,PAYLOAD,2022-04-05 22:00:00,15.731567300000002,0.0001433,53.2153,309.2091,73.4223,359.116,0.00010003,0.00013415,0.0,0 STARLINK-3613,1 51810U 22017AU  22095.91667824  .00013415  00000-0  10003-3 0  9999,2 51810  53.2153 309.2091 0001433  73.4223 359.1160 15.73156730  3750,6728.019,91.536,350.848,348.9190000000001,0.0
51810.0,STARLINK-3613,PAYLOAD,2022-04-06 12:00:00,15.73122828,0.0001406999999999,53.2148,306.3226,85.6615,52.4415,0.00072978,0.0010272,0.0,0 STARLINK-3613,1 51810U 22017AU  22096.50001157  .00102720  00000-0  72978-3 0  9993,2 51810  53.2148 306.3226 0001407  85.6615  52.4415 15.73122828  7507,6728.115,91.538,350.927,349.034,0.0
51810.0,STARLINK-3613,PAYLOAD,2022-04-06 14:00:01,15.731509,0.0001425,53.2151,305.9103,86.005,164.3057,0.00057125,0.0008015,0.0,0 STARLINK-3613,1 51810U 22017AU  22096.58334491  .00080150  00000-0  57125-3 0  9990,2 51810  53.2151 305.9103 0001425  86.0050 164.3057 15.73150900  3703,6728.035,91.536,350.8590000000001,348.941,0.0
51810.0,STARLINK-3613,PAYLOAD,2022-04-06 22:00:00,15.73193453,0.0001411,53.2153,304.263,73.6417,265.5775,0.00038793,0.0005416,0.0,0 STARLINK-3613,1 51810U 22017AU  22096.91667824  .00054160  00000-0  38793-3 0  9998,2 51810  53.2153 304.2630 0001411  73.6417 265.5775 15.73193453  3707,6727.9140000000025,91.534,350.728,348.83,0.0
51810.0,STARLINK-3613,PAYLOAD,2022-04-07 04:00:00,15.73282294,0.0001199,53.2151,303.0252,70.3337,245.5948,-0.00066108,-0.00092706,0.0,0 STARLINK-3613,1 51810U 22017AU  22097.16667824 -.00092706  00000-0 -66108-3 0  9997,2 51810  53.2151 303.0252 0001199  70.3337 245.5948 15.73282294  7616,6727.661,91.528,350.332,348.719,0.0
51810.0,STARLINK-3613,PAYLOAD,2022-04-07 14:00:01,15.73225792,0.0001233,53.2154,300.9618,79.4936,77.6501,-0.00033402,-0.00047286,0.0,0 STARLINK-3613,1 51810U 22017AU  22097.58334491 -.00047286  00000-0 -33402-3 0  9998,2 51810  53.2154 300.9618 0001233  79.4936  77.6501 15.73225792  3700,6727.821999999999,91.532,350.516,348.857,0.0
51810.0,STARLINK-3613,PAYLOAD,2022-04-07 20:00:01,15.73210857,0.0001321,53.215,299.7263,69.79,64.0799,2.2593e-05,2.553e-05,0.0,0 STARLINK-3613,1 51810U 22017AU  22097.83334491  .00002553  00000-0  22593-4 0  9992,2 51810  53.2150 299.7263 0001321  69.7900  64.0799 15.73210857  7718,6727.864000000001,91.533,350.61800000000005,348.84,0.0
51810.0,STARLINK-3613,PAYLOAD,2022-04-07 22:00:00,15.73216551,0.0001303,53.2151,299.3144,67.3651,178.7383,-5.019600000000001e-05,-7.663e-05,0.0,0 STARLINK-3613,1 51810U 22017AU  22097.91667824 -.00007663  00000-0 -50196-4 0  9999,2 51810  53.2151 299.3144 0001303  67.3651 178.7383 15.73216551  3681,6727.848000000001,91.532,350.59,348.836,0.0
51810.0,STARLINK-3613,PAYLOAD,2022-04-08 12:00:00,15.73253761,0.000101,53.2146,296.4251,77.4078,234.3781,7.7739e-06,4.74e-06,0.0,0 STARLINK-3613,1 51810U 22017AU  22098.50001157  .00000474  00000-0  77739-5 0  9990,2 51810  53.2146 296.4251 0001010  77.4078 234.3781 15.73253761  7827,6727.7419999999975,91.53,350.286,348.927,0.0
51810.0,STARLINK-3613,PAYLOAD,2022-04-08 14:00:03,15.73283166,0.0001065,53.2149,296.013,76.7057,347.4508,-0.0004561,-0.00064368,0.0,0 STARLINK-3613,1 51810U 22017AU  22098.58336806 -.00064368  00000-0 -45610-3 0  9995,2 51810  53.2149 296.0130 0001065  76.7057 347.4508 15.73283166  3709,6727.658,91.528,350.24,348.807,0.0
51810.0,STARLINK-3613,PAYLOAD,2022-04-08 20:00:01,15.73238249,0.0001144,53.2149,294.7777,65.7725,334.9918,-0.00081029,-0.00113006,0.0,0 STARLINK-3613,1 51810U 22017AU  22098.83334491 -.00113006  00000-0 -81029-3 0  9999,2 51810  53.2149 294.7777 0001144  65.7725 334.9918 15.73238249  7879,6727.786,91.531,350.421,348.881,0.0
51810.0,STARLINK-3613,PAYLOAD,2022-04-08 22:00:00,15.73200551,0.0001167,53.2151,294.3656,62.5344,90.4757,-0.0004809,-0.00067571,0.0,0 STARLINK-3613,1 51810U 22017AU  22098.91667824 -.00067571  00000-0 -48090-3 0  9993,2 51810  53.2151 294.3656 0001167  62.5344  90.4757 15.73200551  3675,6727.894,91.533,350.5440000000001,348.973,0.0
51810.0,STARLINK-3613,PAYLOAD,2022-04-09 04:00:00,15.73179747,0.0001084,53.2148,293.1275,61.9273,67.7789,-0.00028524,-0.00040423,0.0,0 STARLINK-3613,1 51810U 22017AU  22099.16667824 -.00040423  00000-0 -28524-3 0  9998,2 51810  53.2148 293.1275 0001084  61.9273  67.7789 15.73179747  7923,6727.953,91.534,350.547,349.089,0.0
51810.0,STARLINK-3613,PAYLOAD,2022-04-09 14:00:01,15.73137415,9.44e-05,53.215,291.0648,67.0513,263.7437,0.00026546,0.00036699,0.0,0 STARLINK-3613,1 51810U 22017AU  22099.58334491  .00036699  00000-0  26546-3 0  9995,2 51810  53.2150 291.0648 0000944  67.0513 263.7437 15.73137415  3701,6728.074000000001,91.537,350.574,349.30300000000005,0.0
51810.0,STARLINK-3613,PAYLOAD,2022-04-09 20:00:01,15.73166245,0.0001082,53.2146,289.8294,54.1463,253.3164,0.00049049,0.00068681,0.0,0 STARLINK-3613,1 51810U 22017AU  22099.83334491  .00068681  00000-0  49049-3 0  9992,2 51810  53.2146 289.8294 0001082  54.1463 253.3164 15.73166245  8039,6727.991,91.535,350.584,349.12800000000016,0.0
51810.0,STARLINK-3613,PAYLOAD,2022-04-09 22:00:00,15.7316131,0.0001065,53.2147,289.4174,51.8716,7.8194,0.0007741,0.00109261,0.0,0 STARLINK-3613,1 51810U 22017AU  22099.91667824  .00109261  00000-0  77410-3 0  9993,2 51810  53.2147 289.4174 0001065  51.8716   7.8194 15.73161310  3701,6728.005,91.535,350.587,349.154,0.0
51810.0,STARLINK-3613,PAYLOAD,2022-04-10 12:00:00,15.73289432,0.0001066,53.2143,286.5283,68.5907,56.7425,-0.00041327,-0.00058438,0.0,0 STARLINK-3613,1 51810U 22017AU  22100.50001157 -.00058438  00000-0 -41327-3 0  9991,2 51810  53.2143 286.5283 0001066  68.5907  56.7425 15.73289432  8132,6727.64,91.528,350.222,348.788,0.0
51810.0,STARLINK-3613,PAYLOAD,2022-04-10 14:00:01,15.73309725,0.0001089,53.2144,286.1164,67.9344,169.6477,-0.00090875,-0.00126842,0.0,0 STARLINK-3613,1 51810U 22017AU  22100.58334491 -.00126842  00000-0 -90875-3 0  9996,2 51810  53.2144 286.1164 0001089  67.9344 169.6477 15.73309725  3707,6727.581999999999,91.527,350.18,348.715,0.0
51810.0,STARLINK-3613,PAYLOAD,2022-04-10 22:00:00,15.73212819,0.0001359,53.2144,284.4686,56.8693,269.7632,3.966e-05,4.952e-05,0.0,0 STARLINK-3613,1 51810U 22017AU  22100.91667824  .00004952  00000-0  39660-4 0  9993,2 51810  53.2144 284.4686 0001359  56.8693 269.7632 15.73212819  3714,6727.859,91.532,350.63800000000015,348.809,0.0
51810.0,STARLINK-3613,PAYLOAD,2022-04-11 12:00:00,15.73231923,0.0001230999999999,53.2145,281.5795,61.5608,330.6807,-0.00016547,-0.00023808,0.0,0 STARLINK-3613,1 51810U 22017AU  22101.50001157 -.00023808  00000-0 -16547-3 0  9991,2 51810  53.2145 281.5795 0001231  61.5608 330.6807 15.73231923  8299,6727.804,91.531,350.497,348.841,0.0
51810.0,STARLINK-3613,PAYLOAD,2022-04-11 14:00:01,15.73254743,0.0001315,53.2143,281.1677,61.6698,82.8043,-0.00058131,-0.00081606,0.0,0 STARLINK-3613,1 51810U 22017AU  22101.58334491 -.00081606  00000-0 -58131-3 0  9994,2 51810  53.2143 281.1677 0001315  61.6698  82.8043 15.73254743  3709,6727.739000000001,91.53,350.48900000000015,348.719,0.0
51810.0,STARLINK-3613,PAYLOAD,2022-04-11 22:00:00,15.73201197,0.0001434,53.214,279.5199,51.65,181.7891,8.447700000000001e-05,0.00011252,0.0,0 STARLINK-3613,1 51810U 22017AU  22101.91667824  .00011252  00000-0  84477-4 0  9991,2 51810  53.2140 279.5199 0001434  51.6500 181.7891 15.73201197  3692,6727.892,91.533,350.722,348.792,0.0
51810.0,STARLINK-3613,PAYLOAD,2022-04-12 12:00:00,15.73153054,0.0001276,53.2137,276.6309,62.55,236.4845,0.00012519,0.0001695,0.0,0 STARLINK-3613,1 51810U 22017AU  22102.50001157  .00016950  00000-0  12519-3 0  9995,2 51810  53.2137 276.6309 0001276  62.5500 236.4845 15.73153054  8447,6728.029,91.536,350.75300000000016,349.036,0.0
51810.0,STARLINK-3613,PAYLOAD,2022-04-12 14:00:01,15.73151963,0.0001327,53.2138,276.2191,60.3724,350.8831,0.00014543,0.00019797,0.0,0 STARLINK-3613,1 51810U 22017AU  22102.58334491  .00019797  00000-0  14543-3 0  9994,2 51810  53.2138 276.2191 0001327  60.3724 350.8831 15.73151963  3712,6728.031999999997,91.536,350.79,349.004,0.0
51810.0,STARLINK-3613,PAYLOAD,2022-04-12 22:00:00,15.73156082,0.0001509,53.2138,274.5713,51.4304,88.7118,0.00051399,0.00072,0.0,0 STARLINK-3613,1 51810U 22017AU  22102.91667824  .00072000  00000-0  51399-3 0  9996,2 51810  53.2138 274.5713 0001509  51.4304  88.7118 15.73156082  3688,6728.02,91.536,350.901,348.87,0.0
51810.0,STARLINK-3613,PAYLOAD,2022-04-13 04:00:00,15.73230382,0.0001508,53.2138,273.3325,54.3022,62.5257,-0.00049837,-0.00070075,0.0,0 STARLINK-3613,1 51810U 22017AU  22103.16667824 -.00070075  00000-0 -49837-3 0  9990,2 51810  53.2138 273.3325 0001508  54.3022  62.5257 15.73230382  8553,6727.809,91.531,350.68800000000016,348.659,0.0
51810.0,STARLINK-3613,PAYLOAD,2022-04-13 12:00:00,15.73205788,0.0001604,53.2177,271.6609,59.1438,146.4677,-9.2493e-06,-1.919e-05,0.0,0 STARLINK-3613,1 51810U 22017AU  22103.50001157 -.00001919  00000-0 -92493-5 0  9998,2 51810  53.2177 271.6609 0001604  59.1438 146.4677 15.73205788  8609,6727.879,91.533,350.8230000000001,348.665,0.0
